[{"OBJECT_NAME":"ONEWEB-0035","OBJECT_ID":"2020-008N","EPOCH":"2025-11-25T01:21:06.227712","MEAN_MOTION":13.10377069,"ECCENTRICITY":0.0001737,"INCLINATION":87.88,"RA_OF_ASC_NODE":76.9782,"ARG_OF_PERICENTER":99.9719,"MEAN_ANOMALY":260.1605,"EPHEMERIS_TYPE":0,"CLASSIFICATION_TYPE":"U","NORAD_CAT_ID":45143,"ELEMENT_SET_NO":999,"REV_AT_EPOCH":28120,"BSTAR":0.0012272,"MEAN_MOTION_DOT":4.41e-6,"MEAN_MOTION_DDOT":0},{"OBJECT_NAME":"ONEWEB-0036","OBJECT_ID":"2020-008P","EPOCH":"2025-11-25T01:06:44.735040","MEAN_MOTION":13.10375934,"ECCENTRICITY":0.0001625,"INCLINATION":87.8809,"RA_OF_ASC_NODE":76.9369,"ARG_OF_PERICENTER":112.497,"MEAN_ANOMALY":247.633,"EPHEMERIS_TYPE":0,"CLASSIFICATION_TYPE":"U","NORAD_CAT_ID":45144,"ELEMENT_SET_NO":999,"REV_AT_EPOCH":28163,"BSTAR":-0.00028342,"MEAN_MOTION_DOT":-8.6e-7,"MEAN_MOTION_DDOT":0},{"OBJECT_NAME":"ONEWEB-0038","OBJECT_ID":"2020-008Q","EPOCH":"2025-11-24T23:58:09.851232","MEAN_MOTION":13.11418046,"ECCENTRICITY":0.0003509,"INCLINATION":87.8868,"RA_OF_ASC_NODE":61.7213,"ARG_OF_PERICENTER":104.1994,"MEAN_ANOMALY":255.9524,"EPHEMERIS_TYPE":0,"CLASSIFICATION_TYPE":"U","NORAD_CAT_ID":45145,"ELEMENT_SET_NO":999,"REV_AT_EPOCH":28356,"BSTAR":-0.00096911,"MEAN_MOTION_DOT":-3.31e-6,"MEAN_MOTION_DDOT":0},{"OBJECT_NAME":"ONEWEB-0039","OBJECT_ID":"2020-008R","EPOCH":"2025-11-25T00:41:38.155776","MEAN_MOTION":13.10374191,"ECCENTRICITY":0.0001842,"INCLINATION":87.8815,"RA_OF_ASC_NODE":76.9567,"ARG_OF_PERICENTER":119.5917,"MEAN_ANOMALY":240.5394,"EPHEMERIS_TYPE":0,"CLASSIFICATION_TYPE":"U","NORAD_CAT_ID":45146,"ELEMENT_SET_NO":999,"REV_AT_EPOCH":28142,"BSTAR":-0.0016349,"MEAN_MOTION_DOT":-5.58e-6,"MEAN_MOTION_DDOT":0},{"OBJECT_NAME":"ONEWEB-0040","OBJECT_ID":"2020-008S","EPOCH":"2025-11-25T00:32:03.619968","MEAN_MOTION":13.10371124,"ECCENTRICITY":0.000172,"INCLINATION":87.8801,"RA_OF_ASC_NODE":76.9849,"ARG_OF_PERICENTER":105.0676,"MEAN_ANOMALY":255.0642,"EPHEMERIS_TYPE":0,"CLASSIFICATION_TYPE":"U","NORAD_CAT_ID":45147,"ELEMENT_SET_NO":999,"REV_AT_EPOCH":28112,"BSTAR":-0.0016602,"MEAN_MOTION_DOT":-5.67e-6,"MEAN_MOTION_DDOT":0},{"OBJECT_NAME":"ONEWEB-0043","OBJECT_ID":"2020-008U","EPOCH":"2025-11-25T00:34:27.202080","MEAN_MOTION":13.10370755,"ECCENTRICITY":0.0001533,"INCLINATION":87.8801,"RA_OF_ASC_NODE":76.9654,"ARG_OF_PERICENTER":118.7682,"MEAN_ANOMALY":241.3599,"EPHEMERIS_TYPE":0,"CLASSIFICATION_TYPE":"U","NORAD_CAT_ID":45149,"ELEMENT_SET_NO":999,"REV_AT_EPOCH":28144,"BSTAR":-0.0020083,"MEAN_MOTION_DOT":-6.88e-6,"MEAN_MOTION_DDOT":0},{"OBJECT_NAME":"ONEWEB-0044","OBJECT_ID":"2020-008V","EPOCH":"2025-11-24T17:55:16.359168","MEAN_MOTION":13.10376759,"ECCENTRICITY":0.0001633,"INCLINATION":87.8806,"RA_OF_ASC_NODE":77.0118,"ARG_OF_PERICENTER":112.9917,"MEAN_ANOMALY":247.1382,"EPHEMERIS_TYPE":0,"CLASSIFICATION_TYPE":"U","NORAD_CAT_ID":45150,"ELEMENT_SET_NO":999,"REV_AT_EPOCH":28170,"BSTAR":0.0010758,"MEAN_MOTION_DOT":3.88e-6,"MEAN_MOTION_DDOT":0},{"OBJECT_NAME":"ONEWEB-0045","OBJECT_ID":"2020-008W","EPOCH":"2025-11-24T23:50:37.173120","MEAN_MOTION":13.11418304,"ECCENTRICITY":0.000185,"INCLINATION":87.8882,"RA_OF_ASC_NODE":61.7043,"ARG_OF_PERICENTER":106.0101,"MEAN_ANOMALY":254.1231,"EPHEMERIS_TYPE":0,"CLASSIFICATION_TYPE":"U","NORAD_CAT_ID":45151,"ELEMENT_SET_NO":999,"REV_AT_EPOCH":28364,"BSTAR":-0.0012711,"MEAN_MOTION_DOT":-4.38e-6,"MEAN_MOTION_DDOT":0},{"OBJECT_NAME":"ONEWEB-0047","OBJECT_ID":"2020-008X","EPOCH":"2025-11-25T01:05:33.449856","MEAN_MOTION":13.10375538,"ECCENTRICITY":0.0001691,"INCLINATION":87.8801,"RA_OF_ASC_NODE":76.9622,"ARG_OF_PERICENTER":107.3913,"MEAN_ANOMALY":252.7399,"EPHEMERIS_TYPE":0,"CLASSIFICATION_TYPE":"U","NORAD_CAT_ID":45152,"ELEMENT_SET_NO":999,"REV_AT_EPOCH":28146,"BSTAR":-0.00024994,"MEAN_MOTION_DOT":-7.5e-7,"MEAN_MOTION_DDOT":0},{"OBJECT_NAME":"ONEWEB-0048","OBJECT_ID":"2020-008Y","EPOCH":"2025-11-25T00:58:21.137952","MEAN_MOTION":13.10374239,"ECCENTRICITY":0.0001681,"INCLINATION":87.881,"RA_OF_ASC_NODE":76.9904,"ARG_OF_PERICENTER":101.2703,"MEAN_ANOMALY":258.8613,"EPHEMERIS_TYPE":0,"CLASSIFICATION_TYPE":"U","NORAD_CAT_ID":45153,"ELEMENT_SET_NO":999,"REV_AT_EPOCH":28107,"BSTAR":-0.00054449,"MEAN_MOTION_DOT":-1.77e-6,"MEAN_MOTION_DDOT":0},{"OBJECT_NAME":"ONEWEB-0049","OBJECT_ID":"2020-008Z","EPOCH":"2025-11-25T01:01:56.972064","MEAN_MOTION":13.10377134,"ECCENTRICITY":0.0001278,"INCLINATION":87.88,"RA_OF_ASC_NODE":76.9788,"ARG_OF_PERICENTER":112.9817,"MEAN_ANOMALY":247.1446,"EPHEMERIS_TYPE":0,"CLASSIFICATION_TYPE":"U","NORAD_CAT_ID":45154,"ELEMENT_SET_NO":999,"REV_AT_EPOCH":28129,"BSTAR":-0.0010274,"MEAN_MOTION_DOT":-3.46e-6,"MEAN_MOTION_DDOT":0},{"OBJECT_NAME":"ONEWEB-0051","OBJECT_ID":"2020-008AA","EPOCH":"2025-11-24T18:18:34.288704","MEAN_MOTION":13.11417402,"ECCENTRICITY":0.0001746,"INCLINATION":87.8862,"RA_OF_ASC_NODE":61.7755,"ARG_OF_PERICENTER":104.4866,"MEAN_ANOMALY":255.6456,"EPHEMERIS_TYPE":0,"CLASSIFICATION_TYPE":"U","NORAD_CAT_ID":45155,"ELEMENT_SET_NO":999,"REV_AT_EPOCH":28429,"BSTAR":-0.0013975,"MEAN_MOTION_DOT":-4.83e-6,"MEAN_MOTION_DDOT":0},{"OBJECT_NAME":"ONEWEB-0052","OBJECT_ID":"2020-008AB","EPOCH":"2025-11-25T00:54:46.586880","MEAN_MOTION":13.10375747,"ECCENTRICITY":0.0001267,"INCLINATION":87.8812,"RA_OF_ASC_NODE":76.9385,"ARG_OF_PERICENTER":113.6012,"MEAN_ANOMALY":246.5249,"EPHEMERIS_TYPE":0,"CLASSIFICATION_TYPE":"U","NORAD_CAT_ID":45156,"ELEMENT_SET_NO":999,"REV_AT_EPOCH":28120,"BSTAR":-0.0015392,"MEAN_MOTION_DOT":-5.25e-6,"MEAN_MOTION_DDOT":0},{"OBJECT_NAME":"ONEWEB-0053","OBJECT_ID":"2020-008AC","EPOCH":"2025-11-25T00:29:40.202016","MEAN_MOTION":13.10370122,"ECCENTRICITY":0.0001904,"INCLINATION":87.88,"RA_OF_ASC_NODE":76.9897,"ARG_OF_PERICENTER":110.1023,"MEAN_ANOMALY":250.0309,"EPHEMERIS_TYPE":0,"CLASSIFICATION_TYPE":"U","NORAD_CAT_ID":45157,"ELEMENT_SET_NO":999,"REV_AT_EPOCH":28117,"BSTAR":-0.0017439,"MEAN_MOTION_DOT":-5.96e-6,"MEAN_MOTION_DDOT":0},{"OBJECT_NAME":"ONEWEB-0054","OBJECT_ID":"2020-008AD","EPOCH":"2025-11-25T01:19:54.210720","MEAN_MOTION":13.10373965,"ECCENTRICITY":0.0001647,"INCLINATION":87.8802,"RA_OF_ASC_NODE":76.9544,"ARG_OF_PERICENTER":101.5594,"MEAN_ANOMALY":258.5718,"EPHEMERIS_TYPE":0,"CLASSIFICATION_TYPE":"U","NORAD_CAT_ID":45158,"ELEMENT_SET_NO":999,"REV_AT_EPOCH":28129,"BSTAR":0.0010024,"MEAN_MOTION_DOT":3.63e-6,"MEAN_MOTION_DDOT":0},{"OBJECT_NAME":"ONEWEB-0056","OBJECT_ID":"2020-008AE","EPOCH":"2025-11-25T00:52:23.088576","MEAN_MOTION":13.10374977,"ECCENTRICITY":0.0001483,"INCLINATION":87.8801,"RA_OF_ASC_NODE":76.9565,"ARG_OF_PERICENTER":101.2427,"MEAN_ANOMALY":258.8867,"EPHEMERIS_TYPE":0,"CLASSIFICATION_TYPE":"U","NORAD_CAT_ID":45159,"ELEMENT_SET_NO":999,"REV_AT_EPOCH":28144,"BSTAR":-0.0019869,"MEAN_MOTION_DOT":-6.81e-6,"MEAN_MOTION_DDOT":0},{"OBJECT_NAME":"ONEWEB-0057","OBJECT_ID":"2020-008AF","EPOCH":"2025-11-25T01:03:08.188128","MEAN_MOTION":13.10376373,"ECCENTRICITY":0.0001624,"INCLINATION":87.8805,"RA_OF_ASC_NODE":76.9683,"ARG_OF_PERICENTER":108.7782,"MEAN_ANOMALY":251.3522,"EPHEMERIS_TYPE":0,"CLASSIFICATION_TYPE":"U","NORAD_CAT_ID":45160,"ELEMENT_SET_NO":999,"REV_AT_EPOCH":28161,"BSTAR":-0.0010736,"MEAN_MOTION_DOT":-3.62e-6,"MEAN_MOTION_DDOT":0}]
