ONEWEB-0035             
1 45143U 20008N   25329.05632208  .00000441  00000+0  12272-2 0  9998
2 45143  87.8800  76.9782 0001737  99.9719 260.1605 13.10377069281201
ONEWEB-0036             
1 45144U 20008P   25329.04635110 -.00000086  00000+0 -28342-3 0  9996
2 45144  87.8809  76.9369 0001625 112.4970 247.6330 13.10375934281639
ONEWEB-0038             
1 45145U 20008Q   25328.99872513 -.00000331  00000+0 -96911-3 0  9990
2 45145  87.8868  61.7213 0003509 104.1994 255.9524 13.11418046283566
ONEWEB-0039             
1 45146U 20008R   25329.02891384 -.00000558  00000+0 -16349-2 0  9990
2 45146  87.8815  76.9567 0001842 119.5917 240.5394 13.10374191281421
ONEWEB-0040             
1 45147U 20008S   25329.02226412 -.00000567  00000+0 -16602-2 0  9997
2 45147  87.8801  76.9849 0001720 105.0676 255.0642 13.10371124281124
ONEWEB-0043             
1 45149U 20008U   25329.02392595 -.00000688  00000+0 -20083-2 0  9997
2 45149  87.8801  76.9654 0001533 118.7682 241.3599 13.10370755281443
ONEWEB-0044             
1 45150U 20008V   25328.74671712  .00000388  00000+0  10758-2 0  9991
2 45150  87.8806  77.0118 0001633 112.9917 247.1382 13.10376759281708
ONEWEB-0045             
1 45151U 20008W   25328.99348580 -.00000438  00000+0 -12711-2 0  9992
2 45151  87.8882  61.7043 0001850 106.0101 254.1231 13.11418304283640
ONEWEB-0047             
1 45152U 20008X   25329.04552604 -.00000075  00000+0 -24994-3 0  9998
2 45152  87.8801  76.9622 0001691 107.3913 252.7399 13.10375538281468
ONEWEB-0048             
1 45153U 20008Y   25329.04052243 -.00000177  00000+0 -54449-3 0  9994
2 45153  87.8810  76.9904 0001681 101.2703 258.8613 13.10374239281071
ONEWEB-0049             
1 45154U 20008Z   25329.04302051 -.00000346  00000+0 -10274-2 0  9995
2 45154  87.8800  76.9788 0001278 112.9817 247.1446 13.10377134281294
ONEWEB-0051             
1 45155U 20008AA  25328.76289686 -.00000483  00000+0 -13975-2 0  9995
2 45155  87.8862  61.7755 0001746 104.4866 255.6456 13.11417402284291
ONEWEB-0052             
1 45156U 20008AB  25329.03803920 -.00000525  00000+0 -15392-2 0  9992
2 45156  87.8812  76.9385 0001267 113.6012 246.5249 13.10375747281208
ONEWEB-0053             
1 45157U 20008AC  25329.02060419 -.00000596  00000+0 -17439-2 0  9992
2 45157  87.8800  76.9897 0001904 110.1023 250.0309 13.10370122281171
ONEWEB-0054             
1 45158U 20008AD  25329.05548855  .00000363  00000+0  10024-2 0  9994
2 45158  87.8802  76.9544 0001647 101.5594 258.5718 13.10373965281292
ONEWEB-0056             
1 45159U 20008AE  25329.03637834 -.00000681  00000+0 -19869-2 0  9990
2 45159  87.8801  76.9565 0001483 101.2427 258.8867 13.10374977281444
ONEWEB-0057             
1 45160U 20008AF  25329.04384477 -.00000362  00000+0 -10736-2 0  9995
2 45160  87.8805  76.9683 0001624 108.7782 251.3522 13.10376373281611
